[{"OBJECT_NAME":"STARLINK-5324","OBJECT_ID":"2023-021BB","EPOCH":"2026-03-09T12:32:12.843168","MEAN_MOTION":14.9832728,"ECCENTRICITY":0.00033628,"INCLINATION":70.0007,"RA_OF_ASC_NODE":144.8377,"ARG_OF_PERICENTER":269.4702,"MEAN_ANOMALY":90.6072,"EPHEMERIS_TYPE":0,"CLASSIFICATION_TYPE":"U","NORAD_CAT_ID":55677,"ELEMENT_SET_NO":999,"REV_AT_EPOCH":16975,"BSTAR":-4.7771848e-5,"MEAN_MOTION_DOT":-6.63e-6,"MEAN_MOTION_DDOT":0},{"OBJECT_NAME":"CZ-6A DEB","OBJECT_ID":"2024-140RN","EPOCH":"2026-03-09T09:36:23.350464","MEAN_MOTION":14.99974811,"ECCENTRICITY":0.0047719,"INCLINATION":88.1445,"RA_OF_ASC_NODE":217.6461,"ARG_OF_PERICENTER":172.1525,"MEAN_ANOMALY":188.0467,"EPHEMERIS_TYPE":0,"CLASSIFICATION_TYPE":"U","NORAD_CAT_ID":61168,"ELEMENT_SET_NO":999,"REV_AT_EPOCH":8322,"BSTAR":0.0063622011,"MEAN_MOTION_DOT":0.00081758,"MEAN_MOTION_DDOT":0}]
